IRIDIUM 57              
1 25273U 98019B   24184.83288740  .00000627  00000+0  21223-3 0  9992
2 25273  86.3960 291.5672 0002188  94.9210 265.2236 14.35267843374664
IRIDIUM 63              
1 25286U 98021B   24185.19899424  .00000575  00000+0  19195-3 0  9993
2 25286  86.3985 228.3138 0002184  88.9551 271.1896 14.35818647374029
IRIDIUM 69              
1 25319U 98026A   24185.22040383  .00000714  00000+0  22013-3 0  9999
2 25319  86.3972 242.6424 0004633  94.0111 266.1618 14.40062523373069
IRIDIUM 71              
1 25320U 98026B   24185.21696552  .00000653  00000+0  19975-3 0  9990
2 25320  86.3974 237.4017 0003765 124.3505 235.8051 14.40372423373597
IRIDIUM 73              
1 25344U 98032C   24185.09804390  .00000946  00000+0  23620-3 0  9997
2 25344  86.4439 194.8768 0002986  91.4698 268.6849 14.50605663380234
IRIDIUM 82              
1 25467U 98051A   24184.77662657  .00020352  00000+0  10052-2 0  9993
2 25467  86.3759 278.3725 0126801 162.5793 197.9858 15.10853525370843
